start=new Date('2021-12-17T00:00:00.000Z').valueOf();
sats=[{"GP_ID":"191858415","ECCENTRICITY":"0.00026480","PERIAPSIS":"545.389","EPOCH":"2021-12-16T19:08:39.132960","ARG_OF_PERICENTER":"69.6541","PERIOD":"95.592","FILE":"3242223","TLE_LINE1":"1 45381U 20019X   21350.79767515 -.00000583  00000-0 -20236-4 0  9996","EPHEMERIS_TYPE":"0","LAUNCH_DATE":"2020-03-18","TIME_SYSTEM":"UTC","RCS_SIZE":"LARGE","APOAPSIS":"549.057","CENTER_NAME":"EARTH","ELEMENT_SET_NO":"999","REV_AT_EPOCH":"9730","MEAN_ANOMALY":"290.4732","INCLINATION":"53.0530","COUNTRY_CODE":"US","TLE_LINE2":"2 45381  53.0530 237.4177 0002648  69.6541 290.4732 15.06396903 97309","REF_FRAME":"TEME","OBJECT_ID":"2020-019X","CLASSIFICATION_TYPE":"U","SEMIMAJOR_AXIS":"6925.358","RA_OF_ASC_NODE":"237.4177","NORAD_CAT_ID":"45381","MEAN_ELEMENT_THEORY":"SGP4","MEAN_MOTION_DOT":"-0.00000583","OBJECT_TYPE":"PAYLOAD","MEAN_MOTION":"15.06396903","SITE":"AFETR","DECAY_DATE":null,"MEAN_MOTION_DDOT":"0.0000000000000","OBJECT_NAME":"STARLINK-1258","BSTAR":"-0.00002023600000"},{"REV_AT_EPOCH":"9714","MEAN_ANOMALY":"291.6835","ELEMENT_SET_NO":"999","TLE_LINE2":"2 45382  53.0547 236.9336 0002969  68.4470 291.6835 15.06404461 97141","REF_FRAME":"TEME","OBJECT_ID":"2020-019Y","CLASSIFICATION_TYPE":"U","INCLINATION":"53.0547","COUNTRY_CODE":"US","NORAD_CAT_ID":"45382","MEAN_ELEMENT_THEORY":"SGP4","MEAN_MOTION_DOT":"0.00001783","OBJECT_TYPE":"PAYLOAD","SEMIMAJOR_AXIS":"6925.335","RA_OF_ASC_NODE":"236.9336","OBJECT_NAME":"STARLINK-1264","BSTAR":"0.00013856000000","MEAN_MOTION":"15.06404461","SITE":"AFETR","DECAY_DATE":null,"MEAN_MOTION_DDOT":"0.0000000000000","GP_ID":"191859167","ECCENTRICITY":"0.00029690","PERIAPSIS":"545.144","ARG_OF_PERICENTER":"68.4470","EPOCH":"2021-12-16T21:47:52.378368","PERIOD":"95.592","TLE_LINE1":"1 45382U 20019Y   21350.90824512  .00001783  00000-0  13856-3 0  9991","FILE":"3242223","EPHEMERIS_TYPE":"0","LAUNCH_DATE":"2020-03-18","APOAPSIS":"549.256","RCS_SIZE":"LARGE","CENTER_NAME":"EARTH","TIME_SYSTEM":"UTC"},{"BSTAR":"0.00000403430000","OBJECT_NAME":"STARLINK-1266","MEAN_MOTION_DDOT":"0.0000000000000","DECAY_DATE":null,"SITE":"AFETR","MEAN_MOTION":"15.06397371","OBJECT_TYPE":"PAYLOAD","MEAN_MOTION_DOT":"-0.00000222","MEAN_ELEMENT_THEORY":"SGP4","NORAD_CAT_ID":"45383","RA_OF_ASC_NODE":"236.8517","SEMIMAJOR_AXIS":"6925.357","OBJECT_ID":"2020-019Z","CLASSIFICATION_TYPE":"U","REF_FRAME":"TEME","TLE_LINE2":"2 45383  53.0530 236.8517 0002515  71.1028 289.0233 15.06397371 97325","COUNTRY_CODE":"US","INCLINATION":"53.0530","MEAN_ANOMALY":"289.0233","REV_AT_EPOCH":"9732","ELEMENT_SET_NO":"999","CENTER_NAME":"EARTH","RCS_SIZE":"LARGE","APOAPSIS":"548.963","TIME_SYSTEM":"UTC","LAUNCH_DATE":"2020-03-18","TLE_LINE1":"1 45383U 20019Z   21350.92299514 -.00000222  00000-0  40343-5 0  9993","FILE":"3242223","EPHEMERIS_TYPE":"0","PERIOD":"95.592","EPOCH":"2021-12-16T22:09:06.780096","ARG_OF_PERICENTER":"71.1028","PERIAPSIS":"545.480","GP_ID":"191859917","ECCENTRICITY":"0.00025150"},{"OBJECT_NAME":"STARLINK-1267","BSTAR":"0.00003165500000","DECAY_DATE":null,"SITE":"AFETR","MEAN_MOTION":"15.06398000","MEAN_MOTION_DDOT":"0.0000000000000","MEAN_MOTION_DOT":"0.00000190","MEAN_ELEMENT_THEORY":"SGP4","NORAD_CAT_ID":"45384","OBJECT_TYPE":"PAYLOAD","RA_OF_ASC_NODE":"236.9001","SEMIMAJOR_AXIS":"6925.355","REF_FRAME":"TEME","TLE_LINE2":"2 45384  53.0550 236.9001 0002382  70.5659 289.5587 15.06398000 97329","CLASSIFICATION_TYPE":"U","OBJECT_ID":"2020-019AA","COUNTRY_CODE":"US","INCLINATION":"53.0550","MEAN_ANOMALY":"289.5587","REV_AT_EPOCH":"9732","ELEMENT_SET_NO":"999","CENTER_NAME":"EARTH","APOAPSIS":"548.869","RCS_SIZE":"LARGE","TIME_SYSTEM":"UTC","PERIOD":"95.592","LAUNCH_DATE":"2020-03-18","EPHEMERIS_TYPE":"0","TLE_LINE1":"1 45384U 20019AA  21350.91193333  .00000190  00000-0  31655-4 0  9993","FILE":"3242223","PERIAPSIS":"545.570","EPOCH":"2021-12-16T21:53:11.039712","ARG_OF_PERICENTER":"70.5659","ECCENTRICITY":"0.00023820","GP_ID":"191858665"},{"BSTAR":"-0.00002011900000","OBJECT_NAME":"STARLINK-1272","MEAN_MOTION_DDOT":"0.0000000000000","SITE":"AFETR","MEAN_MOTION":"15.06398709","DECAY_DATE":null,"OBJECT_TYPE":"PAYLOAD","NORAD_CAT_ID":"45386","MEAN_MOTION_DOT":"-0.00000582","MEAN_ELEMENT_THEORY":"SGP4","SEMIMAJOR_AXIS":"6925.353","RA_OF_ASC_NODE":"236.9001","OBJECT_ID":"2020-019AC","CLASSIFICATION_TYPE":"U","REF_FRAME":"TEME","TLE_LINE2":"2 45386  53.0543 236.9001 0002592  69.1020 291.0246 15.06398709 97328","INCLINATION":"53.0543","COUNTRY_CODE":"US","REV_AT_EPOCH":"9732","MEAN_ANOMALY":"291.0246","ELEMENT_SET_NO":"999","RCS_SIZE":"LARGE","APOAPSIS":"549.013","CENTER_NAME":"EARTH","TIME_SYSTEM":"UTC","FILE":"3242223","TLE_LINE1":"1 45386U 20019AC  21350.91562449 -.00000582  00000-0 -20119-4 0  9993","EPHEMERIS_TYPE":"0","LAUNCH_DATE":"2020-03-18","PERIOD":"95.592","ARG_OF_PERICENTER":"69.1020","EPOCH":"2021-12-16T21:58:29.955936","PERIAPSIS":"545.422","GP_ID":"191858915","ECCENTRICITY":"0.00025920"},{"EPOCH":"2021-12-16T20:54:48.192768","ARG_OF_PERICENTER":"68.4351","PERIAPSIS":"545.382","GP_ID":"191859667","ECCENTRICITY":"0.00026250","RCS_SIZE":"LARGE","APOAPSIS":"549.018","CENTER_NAME":"EARTH","TIME_SYSTEM":"UTC","EPHEMERIS_TYPE":"0","TLE_LINE1":"1 45387U 20019AD  21350.87139112  .00000401  00000-0  45835-4 0  9996","FILE":"3242223","LAUNCH_DATE":"2020-03-18","PERIOD":"95.592","CLASSIFICATION_TYPE":"U","OBJECT_ID":"2020-019AD","TLE_LINE2":"2 45387  53.0535 237.0930 0002625  68.4351 291.6917 15.06404309 97313","REF_FRAME":"TEME","INCLINATION":"53.0535","COUNTRY_CODE":"US","REV_AT_EPOCH":"9731","MEAN_ANOMALY":"291.6917","ELEMENT_SET_NO":"999","BSTAR":"0.00004583500000","OBJECT_NAME":"STARLINK-1274","MEAN_MOTION_DDOT":"0.0000000000000","SITE":"AFETR","MEAN_MOTION":"15.06404309","DECAY_DATE":null,"OBJECT_TYPE":"PAYLOAD","NORAD_CAT_ID":"45387","MEAN_ELEMENT_THEORY":"SGP4","MEAN_MOTION_DOT":"0.00000401","SEMIMAJOR_AXIS":"6925.335","RA_OF_ASC_NODE":"237.0930"},{"INCLINATION":"53.0544","COUNTRY_CODE":"US","TLE_LINE2":"2 45388  53.0544 259.0139 0002464  63.1026 297.0215 15.06408945 96962","REF_FRAME":"TEME","CLASSIFICATION_TYPE":"U","OBJECT_ID":"2020-019AE","ELEMENT_SET_NO":"999","REV_AT_EPOCH":"9696","MEAN_ANOMALY":"297.0215","MEAN_MOTION":"15.06408945","SITE":"AFETR","DECAY_DATE":null,"MEAN_MOTION_DDOT":"0.0000000000000","OBJECT_NAME":"STARLINK-1280","BSTAR":"0.00003360100000","SEMIMAJOR_AXIS":"6925.321","RA_OF_ASC_NODE":"259.0139","NORAD_CAT_ID":"45388","MEAN_ELEMENT_THEORY":"SGP4","MEAN_MOTION_DOT":"0.00000219","OBJECT_TYPE":"PAYLOAD","PERIAPSIS":"545.480","ARG_OF_PERICENTER":"63.1026","EPOCH":"2021-12-16T10:36:25.922880","ECCENTRICITY":"0.00024640","GP_ID":"191826776","TIME_SYSTEM":"UTC","APOAPSIS":"548.893","RCS_SIZE":"LARGE","CENTER_NAME":"EARTH","PERIOD":"95.592","FILE":"3241867","TLE_LINE1":"1 45388U 20019AE  21350.44196670  .00000219  00000-0  33601-4 0  9997","EPHEMERIS_TYPE":"0","LAUNCH_DATE":"2020-03-18"},{"PERIOD":"95.592","LAUNCH_DATE":"2020-03-18","TLE_LINE1":"1 45389U 20019AF  21350.88612552  .00001422  00000-0  11435-3 0  9995","EPHEMERIS_TYPE":"0","FILE":"3242223","TIME_SYSTEM":"UTC","CENTER_NAME":"EARTH","APOAPSIS":"548.885","RCS_SIZE":"LARGE","ECCENTRICITY":"0.00024460","GP_ID":"191858166","PERIAPSIS":"545.497","ARG_OF_PERICENTER":"67.3016","EPOCH":"2021-12-16T21:16:01.244928","RA_OF_ASC_NODE":"237.0078","SEMIMAJOR_AXIS":"6925.326","MEAN_ELEMENT_THEORY":"SGP4","MEAN_MOTION_DOT":"0.00001422","NORAD_CAT_ID":"45389","OBJECT_TYPE":"PAYLOAD","DECAY_DATE":null,"SITE":"AFETR","MEAN_MOTION":"15.06407348","MEAN_MOTION_DDOT":"0.0000000000000","OBJECT_NAME":"STARLINK-1283","BSTAR":"0.00011435000000","ELEMENT_SET_NO":"999","MEAN_ANOMALY":"292.8231","REV_AT_EPOCH":"9732","COUNTRY_CODE":"US","INCLINATION":"53.0531","TLE_LINE2":"2 45389  53.0531 237.0078 0002446  67.3016 292.8231 15.06407348 97320","REF_FRAME":"TEME","OBJECT_ID":"2020-019AF","CLASSIFICATION_TYPE":"U"},{"MEAN_MOTION_DDOT":"0.0000000000000","DECAY_DATE":null,"SITE":"AFETR","MEAN_MOTION":"15.06395439","BSTAR":"0.00001770000000","OBJECT_NAME":"STARLINK-1284","RA_OF_ASC_NODE":"237.1499","SEMIMAJOR_AXIS":"6925.363","OBJECT_TYPE":"PAYLOAD","MEAN_MOTION_DOT":"-0.00000018","MEAN_ELEMENT_THEORY":"SGP4","NORAD_CAT_ID":"45390","COUNTRY_CODE":"US","INCLINATION":"53.0549","CLASSIFICATION_TYPE":"U","OBJECT_ID":"2020-019AG","REF_FRAME":"TEME","TLE_LINE2":"2 45390  53.0549 237.1499 0001954  68.2943 291.8254 15.06395439 97311","ELEMENT_SET_NO":"999","MEAN_ANOMALY":"291.8254","REV_AT_EPOCH":"9731","TIME_SYSTEM":"UTC","CENTER_NAME":"EARTH","RCS_SIZE":"LARGE","APOAPSIS":"548.581","LAUNCH_DATE":"2020-03-18","TLE_LINE1":"1 45390U 20019AG  21350.86033093 -.00000018  00000-0  17700-4 0  9995","FILE":"3242223","EPHEMERIS_TYPE":"0","PERIOD":"95.592","EPOCH":"2021-12-16T20:38:52.592352","ARG_OF_PERICENTER":"68.2943","PERIAPSIS":"545.874","GP_ID":"191858416","ECCENTRICITY":"0.00019540"},{"LAUNCH_DATE":"2020-03-18","FILE":"3242225","TLE_LINE1":"1 45391U 20019AH  21351.00777448 -.00000925  00000-0 -43192-4 0  9994","EPHEMERIS_TYPE":"0","PERIOD":"95.592","CENTER_NAME":"EARTH","RCS_SIZE":"LARGE","APOAPSIS":"548.732","TIME_SYSTEM":"UTC","GP_ID":"191863783","ECCENTRICITY":"0.00021810","ARG_OF_PERICENTER":"76.9391","EPOCH":"2021-12-17T00:11:11.715072","PERIAPSIS":"545.712","OBJECT_TYPE":"PAYLOAD","MEAN_MOTION_DOT":"-0.00000925","MEAN_ELEMENT_THEORY":"SGP4","NORAD_CAT_ID":"45391","RA_OF_ASC_NODE":"236.4801","SEMIMAJOR_AXIS":"6925.357","BSTAR":"-0.00004319200000","OBJECT_NAME":"STARLINK-1289","MEAN_MOTION_DDOT":"0.0000000000000","DECAY_DATE":null,"SITE":"AFETR","MEAN_MOTION":"15.06397237","MEAN_ANOMALY":"283.1841","REV_AT_EPOCH":"9706","ELEMENT_SET_NO":"999","OBJECT_ID":"2020-019AH","CLASSIFICATION_TYPE":"U","TLE_LINE2":"2 45391  53.0544 236.4801 0002181  76.9391 283.1841 15.06397237 97068","REF_FRAME":"TEME","COUNTRY_CODE":"US","INCLINATION":"53.0544"}];
